{"type":"FeatureCollection","features":[{"type":"Feature","properties":{"name":"中華民国"},"geometry":{"type":"MultiPolygon","coordinates":[[[[121.01,22.62],[120.9,22.38],[120.84,21.93],[120.74,21.96],[120.58,22.36],[120.32,22.55],[120.08,23.09],[120.14,23.4],[120.13,23.65],[120.63,24.48],[121.04,25.03],[121.37,25.16],[121.45,25.25],[121.59,25.28],[121.85,25.1],[121.93,24.97],[121.82,24.82],[121.83,24.53],[121.61,24.05],[121.4,23.17],[121.3,22.97],[121.01,22.62]]]]}},{"type":"Feature","properties":{"name":"大韓民国"},"geometry":{"type":"MultiPolygon","coordinates":[[[[126.63,37.78],[126.67,37.92],[127.09,38.28],[128.04,38.31],[128.17,38.36],[128.37,38.62],[128.62,38.18],[129.34,37.27],[129.42,37.06],[129.47,36.74],[129.39,36.32],[129.4,36.05],[129.46,36.01],[129.57,36.05],[129.56,35.95],[129.42,35.5],[129.21,35.18],[128.98,35.1],[128.51,35.1],[128.42,35.02],[128.44,34.87],[128.09,34.93],[128.04,35.02],[127.71,34.95],[127.64,34.89],[127.74,34.78],[127.72,34.72],[127.63,34.69],[127.52,34.84],[127.4,34.82],[127.39,34.74],[127.48,34.63],[127.32,34.46],[127.17,34.55],[127.26,34.66],[127.25,34.76],[127.03,34.61],[126.9,34.44],[126.75,34.51],[126.61,34.4],[126.58,34.32],[126.53,34.31],[126.48,34.49],[126.26,34.67],[126.3,34.72],[126.52,34.7],[126.47,34.76],[126.59,34.82],[126.42,34.82],[126.29,35.15],[126.49,35.5],[126.61,35.57],[126.49,35.61],[126.49,35.65],[126.72,35.77],[126.75,35.87],[126.65,35.92],[126.69,36.01],[126.54,36.17],[126.55,36.48],[126.49,36.69],[126.39,36.65],[126.18,36.69],[126.16,36.77],[126.22,36.87],[126.49,37.01],[126.78,36.95],[126.87,36.82],[126.98,36.94],[126.87,36.98],[126.75,37.19],[126.79,37.29],[126.65,37.45],[126.66,37.55],[126.56,37.72],[126.63,37.78]]],[[[128.74,34.8],[128.65,34.74],[128.49,34.87],[128.72,35.01],[128.74,34.8]]],[[[128.07,34.81],[128.05,34.71],[127.98,34.7],[127.94,34.77],[127.87,34.73],[127.83,34.87],[127.92,34.92],[128.04,34.88],[128.07,34.81]]],[[[126.23,34.37],[126.17,34.36],[126.11,34.4],[126.12,34.44],[126.25,34.56],[126.34,34.54],[126.38,34.5],[126.34,34.43],[126.23,34.37]]],[[[126.52,37.74],[126.52,37.6],[126.46,37.61],[126.37,37.77],[126.41,37.82],[126.52,37.74]]],[[[126.33,33.22],[126.24,33.21],[126.17,33.31],[126.34,33.46],[126.7,33.55],[126.9,33.52],[126.93,33.44],[126.87,33.34],[126.58,33.24],[126.33,33.22]]]]}},{"type":"Feature","properties":{"name":"ロシア"},"geometry":{"type":"MultiPolygon","coordinates":[[[[137.18,55.1],[137.06,54.93],[136.71,54.96],[137.0,55.09],[137.18,55.1]]],[[[130.69,42.3],[130.53,42.54],[130.58,42.57],[130.58,42.62],[130.42,42.73],[130.58,42.81],[131.07,42.9],[131.09,43.04],[131.18,43.14],[131.26,43.38],[131.24,43.47],[131.18,43.51],[131.17,43.7],[131.26,44.07],[130.98,44.84],[131.08,44.91],[131.45,44.98],[131.65,45.21],[131.85,45.33],[131.98,45.24],[132.94,45.03],[133.11,45.13],[133.11,45.32],[133.19,45.49],[133.44,45.6],[133.51,45.88],[133.65,45.96],[133.7,46.14],[133.86,46.25],[133.9,46.37],[133.87,46.5],[134.02,46.71],[134.07,46.95],[134.2,47.13],[134.17,47.3],[134.29,47.41],[134.54,47.49],[134.75,47.72],[134.57,48.02],[134.68,48.21],[134.56,48.32],[134.29,48.37],[133.84,48.27],[133.47,48.1],[133.14,48.11],[132.71,47.95],[132.48,47.71],[131.79,47.68],[131.32,47.73],[130.96,47.71],[130.92,47.84],[130.73,48.02],[130.71,48.13],[130.8,48.34],[130.55,48.6],[130.62,48.77],[130.55,48.86],[130.2,48.89],[129.67,49.28],[129.53,49.32],[129.5,49.39],[129.07,49.37],[128.82,49.46],[128.77,49.49],[128.77,49.58],[128.7,49.6],[128.0,49.57],[127.71,49.67],[127.55,49.8],[127.49,49.98],[127.59,50.21],[127.34,50.35],[127.31,50.45],[127.35,50.62],[127.31,50.71],[126.92,51.1],[126.81,51.51],[126.71,51.57],[126.7,51.7],[126.51,51.93],[126.34,52.36],[126.19,52.52],[126.02,52.61],[126.05,52.74],[125.87,52.87],[125.73,52.89],[125.65,53.04],[125.08,53.2],[124.81,53.13],[124.47,53.23],[124.22,53.37],[123.61,53.55],[123.15,53.54],[122.52,53.46],[122.34,53.49],[120.99,53.28],[120.7,53.17],[120.09,52.79],[120.04,52.72],[120.07,52.63],[120.52,52.62],[120.66,52.57],[120.7,52.49],[120.65,52.4],[120.67,52.3],[120.74,52.21],[120.75,52.1],[120.68,51.97],[120.07,51.6],[119.81,51.27],[119.75,51.11],[119.51,50.86],[119.45,50.7],[119.16,50.41],[119.3,50.35],[119.35,50.28],[119.26,50.07],[118.76,49.96],[118.45,49.84],[117.87,49.51],[117.25,49.62],[116.68,49.82],[116.55,49.92],[116.22,50.01],[115.72,49.88],[115.43,49.9],[114.74,50.23],[114.3,50.27],[113.57,50.01],[113.16,49.8],[113.06,49.62],[112.81,49.52],[112.49,49.53],[112.08,49.42],[111.34,49.36],[110.71,49.14],[110.43,49.22],[110.2,49.17],[110.0,49.2],[110.0,56.0],[160.0,56.0],[160.0,54.12],[159.84,53.78],[159.96,53.55],[159.9,53.38],[160.0,53.28],[160.0,53.13],[159.77,53.23],[159.59,53.24],[158.95,53.05],[158.75,52.91],[158.56,53.05],[158.47,53.03],[158.43,52.96],[158.61,52.87],[158.48,52.63],[158.49,52.38],[158.33,52.09],[158.1,51.81],[157.82,51.61],[157.53,51.48],[157.2,51.21],[156.75,50.97],[156.67,51.23],[156.54,51.31],[156.52,51.38],[156.49,51.91],[156.36,52.51],[156.23,52.63],[156.11,52.87],[155.95,53.74],[155.62,54.86],[155.55,55.35],[155.7,56.0],[137.42,56.0],[136.46,55.58],[136.18,55.35],[135.75,55.16],[135.54,55.11],[135.26,54.94],[135.21,54.84],[135.26,54.73],[135.85,54.58],[136.8,54.62],[136.82,54.45],[136.68,53.93],[136.72,53.8],[136.8,53.78],[136.89,53.84],[137.16,53.82],[137.26,54.03],[137.1,54.13],[137.14,54.18],[137.38,54.28],[137.67,54.28],[137.51,54.16],[137.34,54.1],[137.62,53.97],[137.83,53.95],[137.64,53.87],[137.52,53.71],[137.22,53.58],[137.25,53.55],[137.95,53.6],[138.25,53.73],[138.38,53.91],[138.53,53.96],[138.57,53.95],[138.57,53.82],[138.25,53.52],[138.45,53.54],[138.66,53.74],[138.7,53.87],[138.72,54.22],[138.66,54.3],[139.32,54.19],[139.71,54.28],[140.18,54.05],[140.35,53.81],[140.69,53.6],[141.01,53.49],[141.22,53.33],[141.37,53.29],[141.4,53.18],[141.18,53.02],[140.84,53.09],[141.09,52.9],[141.26,52.84],[141.25,52.55],[141.13,52.44],[141.17,52.37],[141.49,52.18],[141.39,52.06],[141.37,51.92],[140.93,51.62],[140.84,51.41],[140.69,51.23],[140.67,51.05],[140.52,50.8],[140.48,50.55],[140.54,50.13],[140.62,50.08],[140.46,49.91],[140.52,49.6],[140.31,49.05],[140.38,48.96],[140.22,48.77],[140.11,48.42],[139.37,47.89],[139.0,47.38],[138.59,47.06],[138.39,46.75],[138.34,46.54],[138.21,46.46],[138.11,46.25],[137.69,45.82],[136.8,45.17],[136.25,44.67],[136.14,44.49],[135.87,44.37],[135.53,43.97],[135.48,43.84],[135.26,43.68],[135.13,43.53],[134.01,42.95],[133.16,42.7],[133.06,42.72],[133.0,42.81],[132.86,42.79],[132.71,42.88],[132.3,42.88],[132.31,43.31],[132.03,43.12],[131.87,43.1],[132.01,43.28],[131.94,43.3],[131.72,43.2],[131.39,42.82],[131.16,42.63],[130.71,42.66],[130.83,42.52],[130.69,42.3]]],[[[142.76,54.39],[142.98,54.14],[142.92,53.79],[143.22,53.3],[143.32,52.96],[143.32,52.61],[143.17,52.35],[143.19,51.94],[143.29,51.74],[143.32,51.58],[143.46,51.47],[143.47,51.3],[143.53,51.25],[143.82,50.28],[144.05,49.9],[144.34,49.18],[144.43,49.05],[144.69,48.87],[144.71,48.64],[144.54,48.89],[144.05,49.25],[143.73,49.31],[143.38,49.29],[143.1,49.2],[143.03,49.11],[142.57,48.07],[142.56,47.74],[142.75,47.45],[142.94,47.32],[143.22,46.79],[143.38,46.81],[143.49,46.75],[143.58,46.36],[143.43,46.03],[143.35,46.48],[143.28,46.56],[142.83,46.61],[142.69,46.71],[142.58,46.7],[142.41,46.55],[142.21,46.09],[142.08,45.92],[141.96,46.01],[141.83,46.45],[141.87,46.69],[142.04,47.14],[141.96,47.59],[142.18,48.01],[142.14,48.29],[141.87,48.75],[142.02,49.08],[142.14,49.57],[142.15,50.22],[142.07,50.63],[142.21,51.0],[142.21,51.22],[142.01,51.52],[141.72,51.74],[141.81,51.79],[141.67,51.93],[141.66,52.27],[141.8,52.56],[141.86,52.79],[141.87,53.04],[141.82,53.34],[141.96,53.46],[142.14,53.5],[142.32,53.41],[142.53,53.45],[142.58,53.54],[142.51,53.59],[142.55,53.65],[142.68,53.67],[142.69,53.73],[142.64,53.74],[142.71,53.9],[142.33,54.28],[142.55,54.28],[142.69,54.42],[142.76,54.39]]],[[[137.94,55.09],[138.21,55.03],[138.1,54.99],[137.96,54.79],[137.72,54.66],[137.66,54.65],[137.46,54.87],[137.23,54.79],[137.28,54.89],[137.58,55.2],[137.94,55.09]]],[[[154.81,49.31],[154.71,49.27],[154.61,49.29],[154.61,49.38],[154.82,49.65],[154.9,49.63],[154.8,49.47],[154.81,49.31]]],[[[156.41,50.66],[156.33,50.64],[156.17,50.73],[156.38,50.86],[156.46,50.86],[156.48,50.75],[156.41,50.66]]],[[[155.92,50.3],[155.79,50.2],[155.52,50.15],[155.4,50.04],[155.24,50.09],[155.24,50.21],[155.2,50.26],[155.43,50.37],[155.68,50.4],[155.88,50.68],[156.1,50.77],[156.1,50.56],[155.92,50.3]]],[[[152.0,46.9],[151.82,46.79],[151.75,46.79],[151.72,46.85],[151.86,46.87],[152.17,47.11],[152.29,47.14],[152.0,46.9]]],[[[149.69,45.64],[149.45,45.59],[149.67,45.84],[149.8,45.88],[149.96,46.02],[150.35,46.21],[150.55,46.21],[150.23,46.01],[150.2,45.93],[149.69,45.64]]],[[[148.6,45.32],[148.26,45.22],[147.91,44.99],[147.66,44.98],[147.56,44.84],[147.31,44.68],[147.21,44.55],[146.9,44.4],[146.93,44.51],[147.14,44.66],[147.15,44.77],[147.25,44.86],[147.89,45.23],[147.87,45.3],[147.92,45.38],[148.06,45.26],[148.32,45.28],[148.61,45.48],[148.81,45.51],[148.84,45.36],[148.6,45.32]]],[[[146.71,43.74],[146.61,43.74],[146.62,43.81],[146.82,43.86],[146.9,43.8],[146.71,43.74]]],[[[146.21,44.5],[146.36,44.42],[146.57,44.44],[146.52,44.37],[146.11,44.25],[145.91,44.1],[145.77,43.94],[145.59,43.85],[145.56,43.66],[145.44,43.74],[145.46,43.87],[145.75,44.07],[146.11,44.5],[146.21,44.5]]]]}},{"type":"Feature","properties":{"name":"フィリピン"},"geometry":{"type":"MultiPolygon","coordinates":[[[[121.1,18.62],[121.85,18.3],[122.04,18.33],[122.15,18.49],[122.22,18.5],[122.3,18.4],[122.29,18.23],[122.17,18.0],[120.46,18.0],[120.6,18.51],[120.81,18.6],[121.1,18.62]]]]}},{"type":"Feature","properties":{"name":"朝鮮民主主義人民共和国"},"geometry":{"type":"MultiPolygon","coordinates":[[[[128.37,38.62],[128.17,38.36],[128.04,38.31],[127.09,38.28],[126.67,37.92],[126.63,37.78],[126.37,37.88],[126.2,37.83],[126.12,37.74],[126.05,37.87],[125.94,37.87],[125.77,37.99],[125.45,37.73],[125.36,37.72],[125.31,37.84],[124.99,37.93],[125.25,38.06],[125.21,38.08],[124.69,38.13],[124.87,38.23],[124.88,38.34],[125.07,38.56],[125.31,38.67],[125.55,38.69],[125.17,38.81],[125.16,38.87],[125.41,39.29],[125.36,39.53],[125.1,39.59],[124.78,39.76],[124.73,39.65],[124.64,39.62],[124.56,39.79],[124.35,39.91],[124.39,40.1],[124.89,40.46],[125.0,40.46],[125.07,40.55],[125.42,40.66],[125.73,40.87],[125.99,40.9],[126.49,41.36],[126.6,41.64],[126.9,41.78],[127.01,41.74],[127.18,41.53],[127.69,41.44],[128.01,41.45],[128.15,41.39],[128.29,41.61],[128.03,41.9],[128.05,41.99],[128.92,42.04],[129.2,42.22],[129.31,42.41],[129.42,42.44],[129.52,42.38],[129.7,42.45],[129.86,42.97],[129.9,43.0],[130.08,42.97],[130.24,42.89],[130.25,42.74],[130.5,42.57],[130.69,42.3],[130.46,42.3],[130.24,42.18],[129.76,41.71],[129.69,41.59],[129.68,41.49],[129.77,41.3],[129.71,41.12],[129.74,40.93],[129.71,40.86],[129.34,40.73],[129.11,40.49],[128.7,40.32],[128.51,40.13],[128.3,40.04],[127.97,40.0],[127.87,39.9],[127.57,39.78],[127.53,39.7],[127.55,39.46],[127.52,39.38],[127.42,39.37],[127.39,39.21],[127.79,39.08],[127.97,38.9],[128.25,38.75],[128.37,38.62]]]]}},{"type":"Feature","properties":{"name":"モンゴル国"},"geometry":{"type":"MultiPolygon","coordinates":[[[[110.0,49.2],[110.2,49.17],[110.43,49.22],[110.71,49.14],[111.34,49.36],[112.08,49.42],[112.49,49.53],[112.81,49.52],[113.06,49.62],[113.16,49.8],[113.57,50.01],[114.3,50.27],[114.74,50.23],[115.43,49.9],[115.72,49.88],[116.13,50.01],[116.35,49.98],[116.55,49.92],[116.68,49.82],[116.03,48.78],[115.82,48.58],[115.79,48.25],[115.53,48.13],[115.56,47.95],[115.62,47.87],[115.9,47.69],[116.23,47.86],[116.76,47.87],[117.07,47.81],[117.35,47.65],[117.77,47.99],[118.15,48.03],[118.5,47.98],[118.76,47.76],[119.08,47.65],[119.16,47.53],[119.71,47.15],[119.9,46.86],[119.9,46.73],[119.87,46.67],[119.71,46.61],[119.16,46.64],[118.84,46.76],[118.72,46.69],[118.31,46.72],[118.07,46.67],[117.74,46.52],[117.44,46.59],[117.33,46.36],[116.86,46.39],[116.56,46.29],[116.21,45.89],[116.24,45.8],[116.2,45.74],[115.68,45.46],[115.16,45.39],[114.56,45.39],[114.42,45.2],[114.08,44.97],[113.59,44.75],[112.71,44.88],[112.41,45.06],[111.9,45.06],[111.62,44.83],[111.4,44.37],[111.6,44.11],[111.84,43.93],[111.93,43.81],[111.93,43.71],[111.77,43.66],[111.55,43.5],[111.01,43.34],[110.4,42.77],[110.0,42.64],[110.0,49.2]]]]}},{"type":"Feature","properties":{"name":"中華人民共和国"},"geometry":{"type":"MultiPolygon","coordinates":[[[[121.86,31.49],[121.78,31.46],[121.52,31.55],[121.34,31.64],[121.21,31.81],[121.46,31.76],[121.58,31.64],[121.86,31.49]]],[[[122.3,29.96],[122.02,30.01],[121.97,30.14],[122.28,30.07],[122.32,30.03],[122.3,29.96]]],[[[119.82,25.46],[119.75,25.41],[119.7,25.43],[119.72,25.64],[119.78,25.65],[119.84,25.59],[119.82,25.46]]],[[[110.39,21.09],[110.42,21.06],[110.52,21.08],[110.5,20.97],[110.28,21.0],[110.31,21.07],[110.39,21.09]]],[[[110.0,42.64],[110.4,42.77],[111.01,43.34],[111.55,43.5],[111.77,43.66],[111.93,43.71],[111.93,43.81],[111.84,43.93],[111.6,44.11],[111.4,44.37],[111.62,44.83],[111.9,45.06],[112.41,45.06],[112.71,44.88],[113.59,44.75],[114.08,44.97],[114.42,45.2],[114.56,45.39],[115.16,45.39],[115.68,45.46],[116.2,45.74],[116.24,45.8],[116.21,45.89],[116.56,46.29],[116.86,46.39],[117.33,46.36],[117.44,46.59],[117.74,46.52],[118.07,46.67],[118.31,46.72],[118.72,46.69],[118.84,46.76],[119.33,46.61],[119.71,46.61],[119.87,46.67],[119.9,46.86],[119.71,47.15],[119.16,47.53],[119.08,47.65],[118.76,47.76],[118.5,47.98],[118.15,48.03],[117.77,47.99],[117.35,47.65],[117.07,47.81],[116.76,47.87],[116.23,47.86],[115.9,47.69],[115.62,47.87],[115.56,47.95],[115.53,48.13],[115.79,48.25],[115.82,48.58],[116.03,48.78],[116.68,49.82],[117.25,49.62],[117.87,49.51],[118.45,49.84],[118.76,49.96],[119.26,50.07],[119.35,50.28],[119.3,50.35],[119.16,50.41],[119.45,50.7],[119.51,50.86],[119.75,51.11],[119.81,51.27],[120.07,51.6],[120.51,51.85],[120.68,51.97],[120.75,52.1],[120.74,52.21],[120.67,52.3],[120.65,52.4],[120.7,52.49],[120.66,52.57],[120.36,52.63],[120.17,52.6],[120.07,52.63],[120.04,52.72],[120.7,53.17],[120.99,53.28],[122.34,53.49],[122.52,53.46],[123.15,53.54],[123.61,53.55],[124.22,53.37],[124.47,53.23],[124.81,53.13],[125.08,53.2],[125.65,53.04],[125.73,52.89],[125.87,52.87],[126.05,52.74],[126.02,52.61],[126.19,52.52],[126.34,52.36],[126.51,51.93],[126.7,51.7],[126.71,51.57],[126.81,51.51],[126.92,51.1],[127.31,50.71],[127.35,50.62],[127.31,50.45],[127.34,50.35],[127.59,50.21],[127.49,49.98],[127.55,49.8],[127.71,49.67],[128.0,49.57],[128.7,49.6],[128.77,49.58],[128.77,49.49],[128.82,49.46],[129.07,49.37],[129.5,49.39],[129.53,49.32],[129.67,49.28],[130.2,48.89],[130.55,48.86],[130.62,48.77],[130.55,48.6],[130.8,48.34],[130.71,48.13],[130.73,48.02],[130.85,47.93],[131.0,47.69],[131.32,47.73],[131.56,47.68],[132.48,47.71],[132.71,47.95],[133.02,48.06],[133.14,48.11],[133.47,48.1],[133.84,48.27],[134.29,48.37],[134.56,48.32],[134.68,48.21],[134.57,48.02],[134.75,47.72],[134.54,47.49],[134.29,47.41],[134.17,47.3],[134.2,47.13],[134.07,46.95],[134.02,46.71],[133.87,46.5],[133.9,46.37],[133.86,46.25],[133.7,46.14],[133.65,45.96],[133.51,45.88],[133.44,45.6],[133.19,45.49],[133.11,45.32],[133.11,45.13],[132.94,45.03],[131.98,45.24],[131.85,45.33],[131.65,45.21],[131.45,44.98],[131.08,44.91],[130.98,44.84],[131.26,44.07],[131.17,43.7],[131.18,43.51],[131.24,43.47],[131.26,43.38],[131.18,43.14],[131.09,43.04],[131.07,42.9],[130.58,42.81],[130.42,42.73],[130.58,42.62],[130.58,42.57],[130.53,42.54],[130.25,42.74],[130.24,42.89],[130.08,42.97],[129.9,43.0],[129.78,42.78],[129.7,42.45],[129.52,42.38],[129.42,42.44],[129.31,42.41],[129.2,42.22],[128.92,42.04],[128.05,41.99],[128.03,41.9],[128.29,41.61],[128.15,41.39],[128.01,41.45],[127.69,41.44],[127.18,41.53],[126.95,41.77],[126.72,41.72],[126.6,41.64],[126.49,41.36],[125.99,40.9],[125.73,40.87],[125.42,40.66],[125.07,40.55],[125.0,40.46],[124.89,40.46],[124.39,40.1],[124.36,40.0],[124.27,39.92],[124.11,39.84],[123.76,39.82],[123.65,39.88],[123.58,39.79],[123.35,39.76],[123.23,39.69],[122.84,39.6],[122.33,39.37],[121.98,39.05],[121.86,39.0],[121.68,39.0],[121.63,38.95],[121.65,38.87],[121.32,38.81],[121.16,38.73],[121.11,38.92],[121.68,39.11],[121.63,39.22],[121.82,39.39],[121.28,39.38],[121.27,39.54],[121.52,39.64],[121.47,39.75],[121.52,39.84],[121.8,39.95],[122.19,40.36],[122.26,40.5],[122.28,40.54],[122.14,40.69],[121.86,40.84],[121.83,40.97],[121.73,40.85],[121.17,40.9],[120.77,40.59],[120.48,40.23],[119.59,39.9],[119.39,39.75],[119.26,39.56],[119.22,39.41],[118.98,39.18],[118.63,39.18],[118.3,39.07],[118.04,39.23],[117.78,39.13],[117.55,38.69],[117.66,38.42],[117.77,38.31],[118.01,38.18],[118.54,38.09],[118.8,38.13],[118.94,38.04],[119.09,37.7],[118.99,37.64],[118.95,37.33],[119.11,37.2],[119.29,37.14],[119.76,37.16],[119.89,37.25],[119.88,37.35],[120.31,37.62],[120.26,37.68],[120.75,37.83],[121.05,37.73],[121.22,37.6],[121.39,37.58],[121.64,37.46],[121.96,37.45],[122.06,37.53],[122.34,37.41],[122.67,37.4],[122.57,37.32],[122.59,37.18],[122.45,37.07],[122.52,37.0],[122.52,36.95],[122.34,36.83],[122.24,36.85],[122.16,36.96],[121.93,36.96],[121.05,36.61],[120.81,36.63],[120.9,36.44],[120.78,36.46],[120.71,36.41],[120.68,36.17],[120.64,36.13],[120.39,36.05],[120.33,36.11],[120.33,36.23],[120.18,36.2],[120.09,36.12],[120.18,36.02],[120.28,35.98],[120.05,35.86],[119.98,35.74],[119.72,35.59],[119.43,35.3],[119.35,35.11],[119.22,35.01],[119.17,34.85],[119.2,34.75],[119.35,34.75],[119.58,34.58],[119.96,34.45],[120.27,34.27],[120.5,33.64],[120.87,33.02],[120.9,32.84],[120.85,32.66],[121.34,32.43],[121.4,32.37],[121.4,32.21],[121.45,32.15],[121.67,32.05],[121.83,31.9],[121.87,31.7],[121.76,31.7],[121.35,31.86],[120.97,31.87],[120.79,32.03],[120.52,32.11],[120.04,31.94],[120.19,31.91],[120.5,32.02],[120.72,31.98],[120.79,31.82],[121.06,31.72],[121.35,31.49],[121.66,31.32],[121.83,31.06],[121.88,30.92],[121.42,30.79],[121.0,30.56],[120.9,30.39],[120.82,30.35],[120.45,30.39],[120.19,30.24],[120.49,30.3],[120.63,30.13],[120.9,30.16],[121.16,30.3],[121.26,30.3],[121.43,30.23],[121.68,29.98],[122.08,29.87],[121.51,29.48],[121.69,29.51],[121.89,29.63],[121.94,29.61],[121.97,29.49],[121.92,29.14],[121.85,29.13],[121.72,29.26],[121.53,29.24],[121.45,29.13],[121.66,29.01],[121.68,28.95],[121.64,28.92],[121.54,28.93],[121.66,28.85],[121.63,28.77],[121.48,28.64],[121.61,28.29],[121.51,28.32],[121.27,28.22],[121.22,28.35],[121.15,28.33],[120.96,28.04],[120.75,28.01],[120.83,27.89],[120.59,27.58],[120.61,27.41],[120.38,27.16],[120.28,27.1],[120.04,26.63],[119.97,26.59],[119.88,26.61],[119.82,26.85],[119.71,26.73],[119.59,26.78],[119.64,26.62],[119.78,26.55],[119.88,26.33],[119.46,26.05],[119.14,26.12],[119.33,25.95],[119.62,26.0],[119.65,25.92],[119.54,25.59],[119.62,25.39],[119.59,25.37],[119.42,25.46],[119.18,25.45],[119.17,25.36],[119.29,25.23],[118.98,25.21],[118.91,25.13],[118.96,25.0],[118.91,24.93],[118.64,24.84],[118.72,24.75],[118.66,24.62],[118.3,24.57],[118.09,24.63],[118.01,24.56],[118.01,24.48],[117.84,24.47],[117.88,24.4],[118.02,24.38],[118.06,24.25],[117.84,24.01],[117.74,24.01],[117.63,23.84],[117.47,23.84],[117.43,23.79],[117.46,23.74],[117.37,23.59],[117.33,23.71],[117.29,23.71],[117.08,23.58],[116.91,23.65],[116.86,23.45],[116.63,23.35],[116.7,23.28],[116.54,23.18],[116.52,23.01],[116.47,22.95],[116.25,22.98],[116.16,22.89],[115.85,22.8],[115.64,22.85],[115.56,22.82],[115.5,22.72],[115.38,22.72],[115.2,22.82],[114.85,22.62],[114.75,22.63],[114.71,22.74],[114.65,22.76],[114.54,22.62],[114.55,22.53],[114.34,22.59],[114.27,22.54],[114.12,22.56],[114.02,22.51],[113.83,22.61],[113.62,22.86],[113.59,23.02],[113.62,23.13],[113.52,23.1],[113.45,23.06],[113.44,22.94],[113.33,22.91],[113.55,22.59],[113.59,22.35],[113.55,22.23],[113.49,22.24],[113.27,22.09],[113.15,22.07],[113.09,22.21],[113.01,22.12],[112.95,21.91],[112.9,21.88],[112.81,21.94],[112.59,21.78],[112.42,21.88],[112.43,21.96],[112.36,21.98],[112.39,21.8],[112.3,21.74],[111.94,21.85],[111.87,21.72],[111.78,21.72],[111.6,21.56],[111.32,21.49],[111.02,21.51],[111.0,21.43],[110.77,21.39],[110.57,21.21],[110.46,21.23],[110.41,21.34],[110.37,21.17],[110.19,21.04],[110.15,20.94],[110.18,20.86],[110.37,20.84],[110.39,20.79],[110.31,20.67],[110.51,20.52],[110.52,20.46],[110.34,20.29],[110.12,20.26],[110.0,20.28],[110.0,42.64]]],[[[110.89,19.99],[110.97,19.88],[111.01,19.66],[110.82,19.56],[110.64,19.29],[110.45,18.75],[110.25,18.66],[110.0,18.42],[110.0,19.98],[110.21,20.06],[110.34,20.04],[110.39,19.98],[110.39,20.06],[110.59,19.98],[110.6,20.1],[110.65,20.14],[110.89,19.99]]]]}},{"type":"Feature","properties":{"name":"香港"},"geometry":{"type":"MultiPolygon","coordinates":[[[[114.02,22.51],[114.12,22.56],[114.27,22.54],[114.34,22.4],[114.27,22.3],[114.03,22.38],[113.94,22.36],[113.9,22.43],[114.02,22.51]]]]}}]}